{
  "links" : {
    "next" : "https://api.nasa.gov/neo/rest/v1/feed?start_date=2000-06-16&end_date=2000-06-16&detailed=true&api_key=t0TVs3DtDT2H8Oy2Zy8m2eVrNsAVKAexjcZXUckd",
    "prev" : "https://api.nasa.gov/neo/rest/v1/feed?start_date=2000-06-14&end_date=2000-06-14&detailed=true&api_key=t0TVs3DtDT2H8Oy2Zy8m2eVrNsAVKAexjcZXUckd",
    "self" : "https://api.nasa.gov/neo/rest/v1/feed?start_date=2000-06-15&end_date=2000-06-15&detailed=true&api_key=t0TVs3DtDT2H8Oy2Zy8m2eVrNsAVKAexjcZXUckd"
  },
  "element_count" : 5,
  "near_earth_objects" : {
    "2000-06-15" : [ {
      "links" : {
        "self" : "https://api.nasa.gov/neo/rest/v1/neo/2162361?api_key=t0TVs3DtDT2H8Oy2Zy8m2eVrNsAVKAexjcZXUckd"
      },
      "neo_reference_id" : "2162361",
      "name" : "162361 (2000 AF6)",
      "nasa_jpl_url" : "http://ssd.jpl.nasa.gov/sbdb.cgi?sstr=2162361",
      "absolute_magnitude_h" : 20.2,
      "estimated_diameter" : {
        "kilometers" : {
          "estimated_diameter_min" : 0.2424124811,
          "estimated_diameter_max" : 0.5420507863
        },
        "meters" : {
          "estimated_diameter_min" : 242.4124811008,
          "estimated_diameter_max" : 542.0507863358
        },
        "miles" : {
          "estimated_diameter_min" : 0.1506280858,
          "estimated_diameter_max" : 0.3368146392
        },
        "feet" : {
          "estimated_diameter_min" : 795.3165644948,
          "estimated_diameter_max" : 1778.3819018419
        }
      },
      "is_potentially_hazardous_asteroid" : true,
      "close_approach_data" : [ {
        "close_approach_date" : "2000-06-15",
        "epoch_date_close_approach" : 961052400000,
        "relative_velocity" : {
          "kilometers_per_second" : "15.4012360412",
          "kilometers_per_hour" : "55444.4497484366",
          "miles_per_hour" : "34451.0249006328"
        },
        "miss_distance" : {
          "astronomical" : "0.4442393206",
          "lunar" : "172.80909729",
          "kilometers" : "66457256",
          "miles" : "41294624"
        },
        "orbiting_body" : "Earth"
      } ],
      "orbital_data" : {
        "orbit_id" : "81",
        "orbit_determination_date" : "2017-04-06 09:26:32",
        "orbit_uncertainty" : "0",
        "minimum_orbit_intersection" : ".0236921",
        "jupiter_tisserand_invariant" : "6.676",
        "epoch_osculation" : "2458000.5",
        "eccentricity" : ".4113817336576461",
        "semi_major_axis" : ".877764525963731",
        "inclination" : "2.696580874309327",
        "ascending_node_longitude" : "110.7848127652395",
        "orbital_period" : "300.3761626076436",
        "perihelion_distance" : ".5166682335295893",
        "perihelion_argument" : "200.1425063318039",
        "aphelion_distance" : "1.238860818397873",
        "perihelion_time" : "2458042.276309813412",
        "mean_anomaly" : "309.9312082481288",
        "mean_motion" : "1.19849723385087",
        "equinox" : "J2000"
      }
    }, {
      "links" : {
        "self" : "https://api.nasa.gov/neo/rest/v1/neo/3313157?api_key=t0TVs3DtDT2H8Oy2Zy8m2eVrNsAVKAexjcZXUckd"
      },
      "neo_reference_id" : "3313157",
      "name" : "(2006 BA)",
      "nasa_jpl_url" : "http://ssd.jpl.nasa.gov/sbdb.cgi?sstr=3313157",
      "absolute_magnitude_h" : 27.6,
      "estimated_diameter" : {
        "kilometers" : {
          "estimated_diameter_min" : 0.0080270317,
          "estimated_diameter_max" : 0.0179489885
        },
        "meters" : {
          "estimated_diameter_min" : 8.0270316728,
          "estimated_diameter_max" : 17.948988478
        },
        "miles" : {
          "estimated_diameter_min" : 0.0049877647,
          "estimated_diameter_max" : 0.0111529809
        },
        "feet" : {
          "estimated_diameter_min" : 26.3354065935,
          "estimated_diameter_max" : 58.8877593581
        }
      },
      "is_potentially_hazardous_asteroid" : false,
      "close_approach_data" : [ {
        "close_approach_date" : "2000-06-15",
        "epoch_date_close_approach" : 961052400000,
        "relative_velocity" : {
          "kilometers_per_second" : "5.3061354451",
          "kilometers_per_hour" : "19102.0876023735",
          "miles_per_hour" : "11869.2943771526"
        },
        "miss_distance" : {
          "astronomical" : "0.051343048",
          "lunar" : "19.9724464417",
          "kilometers" : "7680811",
          "miles" : "4772634.5"
        },
        "orbiting_body" : "Earth"
      } ],
      "orbital_data" : {
        "orbit_id" : "8",
        "orbit_determination_date" : "2017-04-06 09:09:23",
        "orbit_uncertainty" : "6",
        "minimum_orbit_intersection" : ".0040996",
        "jupiter_tisserand_invariant" : "5.548",
        "epoch_osculation" : "2458000.5",
        "eccentricity" : ".2178886323566262",
        "semi_major_axis" : "1.120583139837939",
        "inclination" : "3.546287013586215",
        "ascending_node_longitude" : "298.5779894113601",
        "orbital_period" : "433.2759195296975",
        "perihelion_distance" : ".8764208120567568",
        "perihelion_argument" : "250.8059753946524",
        "aphelion_distance" : "1.364745467619122",
        "perihelion_time" : "2458145.062220856443",
        "mean_anomaly" : "239.8862407012847",
        "mean_motion" : ".8308793167890904",
        "equinox" : "J2000"
      }
    }, {
      "links" : {
        "self" : "https://api.nasa.gov/neo/rest/v1/neo/3426410?api_key=t0TVs3DtDT2H8Oy2Zy8m2eVrNsAVKAexjcZXUckd"
      },
      "neo_reference_id" : "3426410",
      "name" : "(2008 QV11)",
      "nasa_jpl_url" : "http://ssd.jpl.nasa.gov/sbdb.cgi?sstr=3426410",
      "absolute_magnitude_h" : 21.0,
      "estimated_diameter" : {
        "kilometers" : {
          "estimated_diameter_min" : 0.1677084622,
          "estimated_diameter_max" : 0.3750075218
        },
        "meters" : {
          "estimated_diameter_min" : 167.7084621628,
          "estimated_diameter_max" : 375.0075217981
        },
        "miles" : {
          "estimated_diameter_min" : 0.1042091748,
          "estimated_diameter_max" : 0.2330187988
        },
        "feet" : {
          "estimated_diameter_min" : 550.2246310023,
          "estimated_diameter_max" : 1230.3396778159
        }
      },
      "is_potentially_hazardous_asteroid" : false,
      "close_approach_data" : [ {
        "close_approach_date" : "2000-06-15",
        "epoch_date_close_approach" : 961052400000,
        "relative_velocity" : {
          "kilometers_per_second" : "24.4341445999",
          "kilometers_per_hour" : "87962.9205596558",
          "miles_per_hour" : "54656.7380555262"
        },
        "miss_distance" : {
          "astronomical" : "0.3897432784",
          "lunar" : "151.6101379395",
          "kilometers" : "58304764",
          "miles" : "36228900"
        },
        "orbiting_body" : "Earth"
      } ],
      "orbital_data" : {
        "orbit_id" : "16",
        "orbit_determination_date" : "2017-04-06 09:03:02",
        "orbit_uncertainty" : "1",
        "minimum_orbit_intersection" : ".0984179",
        "jupiter_tisserand_invariant" : "6.469",
        "epoch_osculation" : "2458000.5",
        "eccentricity" : ".4527922930841961",
        "semi_major_axis" : ".907864592986423",
        "inclination" : "8.278695740027688",
        "ascending_node_longitude" : "114.3798292883882",
        "orbital_period" : "315.9585012447702",
        "perihelion_distance" : ".4967905021181501",
        "perihelion_argument" : "7.392326563703367",
        "aphelion_distance" : "1.318938683854696",
        "perihelion_time" : "2457968.757085862307",
        "mean_anomaly" : "36.16756328615697",
        "mean_motion" : "1.139390136937988",
        "equinox" : "J2000"
      }
    } ]
  }
}